[{"OBJECT_NAME":"STARLINK-3587","OBJECT_ID":"2022-022AS","EPOCH":"2026-03-09T22:48:17.867520","MEAN_MOTION":15.08840626,"ECCENTRICITY":0.00014025,"INCLINATION":53.2202,"RA_OF_ASC_NODE":357.9501,"ARG_OF_PERICENTER":108.976,"MEAN_ANOMALY":251.1384,"EPHEMERIS_TYPE":0,"CLASSIFICATION_TYPE":"U","NORAD_CAT_ID":51892,"ELEMENT_SET_NO":999,"REV_AT_EPOCH":22328,"BSTAR":-3.0248478e-5,"MEAN_MOTION_DOT":-7.69e-6,"MEAN_MOTION_DDOT":0},{"OBJECT_NAME":"COSMOS 374 DEB","OBJECT_ID":"1970-089W","EPOCH":"2026-03-09T16:20:12.219936","MEAN_MOTION":13.5280289,"ECCENTRICITY":0.07081767,"INCLINATION":62.9255,"RA_OF_ASC_NODE":204.1769,"ARG_OF_PERICENTER":160.6646,"MEAN_ANOMALY":202.2778,"EPHEMERIS_TYPE":0,"CLASSIFICATION_TYPE":"U","NORAD_CAT_ID":5020,"ELEMENT_SET_NO":999,"REV_AT_EPOCH":66527,"BSTAR":0.0014422969,"MEAN_MOTION_DOT":4.854e-5,"MEAN_MOTION_DDOT":0}]
